1 29108U 06016B   06202.70505693 +.00000072 +00000-0 +26025-4 0 00874
2 29108 098.2366 145.1244 0001267 067.7228 292.4088 14.57087265012275
1 29108U 06016B   06203.46043393  .00000116  00000-0  35820-4 0   863
2 29108 098.2368 145.8720 0001305 063.3146 296.8180 14.57087754 12383
1 29108U 06016B   06203.87245779 +.00000104 +00000-0 +33231-4 0 00872
2 29108 098.2362 146.2796 0001316 061.6176 298.5151 14.57087837012447
1 29108U 06016B   06204.83384653  .00000078  00000-0  27524-4 0   872
2 29108 098.2368 147.2309 0001283 063.8732 296.2596 14.57087944 12581
1 29108U 06016B   06205.86390633  .00000037  00000-0  18300-4 0   889
2 29108 098.2366 148.2499 0001249 061.8135 298.3214 14.57087994 12739
1 29108U 06016B   06205.86390633 +.00000037 +00000-0 +18300-4 0 00902
2 29108 098.2366 148.2499 0001249 061.8135 298.3214 14.57087994012739
1 29108U 06016B   06206.82529416  .00000078  00000-0  27466-4 0   898
2 29108 098.2365 149.2009 0001211 062.5872 297.5439 14.57088311 12870
1 29108U 06016B   06207.85535298  .00000086  00000-0  29249-4 0   909
2 29108 098.2372 150.2201 0001146 067.3582 292.7742 14.57088676 13028
1 29108U 06016B   06207.85535298 +.00000086 +00000-0 +29249-4 0 00921
2 29108 098.2372 150.2201 0001146 067.3582 292.7742 14.57088676013028
1 29108U 06016B   06208.88541169  .00000113  00000-0  35168-4 0   916
2 29108 098.2376 151.2390 0001142 063.7802 296.3520 14.57089084 13177
1 29108U 06016B   06209.70945850 +.00000121 +00000-0 +36969-4 0 00934
2 29108 098.2375 152.0542 0001109 067.0524 293.0815 14.57089414013296
1 29108U 06016B   06210.05281080  .00000086  00000-0  29214-4 0   926
2 29108 098.2372 152.3938 0001132 065.4035 294.7270 14.57089329 13344
1 29108U 06016B   06210.80818672 +.00000102 +00000-0 +32735-4 0 00945
2 29108 098.2374 153.1413 0001140 067.9379 292.1925 14.57089612013456
1 29108U 06016B   06211.42622191  .00000154  00000-0  44402-4 0   933
2 29108 098.2378 153.7528 0001153 067.6491 292.4842 14.57090061 13540
1 29108U 06016B   06212.73096144  .00000093  00000-0  30825-4 0   948
2 29108 098.2382 155.0434 0001130 070.9826 289.1480 14.57090137 13736
1 29108U 06016B   06213.89835993  .00000135  00000-0  40132-4 0   959
2 29108 098.2377 156.1984 0001155 070.3529 289.7790 14.57090794 13901
1 29108U 06016B   06213.89835993 +.00000135 +00000-0 +40132-4 0 00971
2 29108 098.2377 156.1984 0001155 070.3529 289.7790 14.57090794013901
1 29108U 06016B   06214.72240584 +.00000108 +00000-0 +34183-4 0 00979
2 29108 098.2378 157.0133 0001150 067.5293 292.6023 14.57090925014021
1 29108U 06016B   06215.40911062  .00000080  00000-0  27932-4 0   963
2 29108 098.2377 157.6925 0001139 066.2417 293.8896 14.57091008 14121
1 29108U 06016B   06215.88980402 +.00000149 +00000-0 +43282-4 0 00972
2 29108 098.2367 158.1680 0001130 064.2300 295.9031 14.57091516014199
1 29108U 06016B   06216.78251915  .00000146  00000-0  42579-4 0   977
2 29108 098.2367 159.0510 0001131 062.6034 297.5268 14.57091913 14324
1 29108U 06016B   06217.88124646  .00000110  00000-0  34439-4 0   987
2 29108 098.2359 160.1380 0001146 062.1916 297.9396 14.57092085 14487
1 29108U 06016B   06217.88124646 +.00000110 +00000-0 +34439-4 0 01001
2 29108 098.2359 160.1380 0001146 062.1916 297.9396 14.57092085014487
1 29108U 06016B   06218.77396162 +.00000125 +00000-0 +37871-4 0 01003
2 29108 098.2366 161.0213 0001170 057.3642 302.7658 14.57092496014616
1 29108U 06016B   06218.91130265  .00000058  00000-0  23024-4 0   996
2 29108 098.2365 161.1574 0001182 057.8378 302.2920 14.57092192 14632
1 29108U 06016B   06219.87268881 +.00000002 +00000-0 +10542-4 0 01012
2 29108 098.2365 162.1088 0001208 054.9684 305.1619 14.57092132014776
1 29108U 06016B   06220.28471152  .00000094  00000-0  31086-4 0  1002
2 29108 098.2369 162.5165 0001174 058.2240 301.9106 14.57092745 14839
1 29108U 06016B   06220.69673324 +.00000123 +00000-0 +37470-4 0 01019
2 29108 098.2372 162.9242 0001197 056.9586 303.1716 14.57092869014890
1 29108U 06016B   06221.45210797  .00000076  00000-0  27093-4 0  1012
2 29108 098.2376 163.6720 0001215 055.4456 304.6856 14.57092807 15001
1 29108U 06016B   06221.79545992 +.00000040 +00000-0 +18993-4 0 01028
2 29108 098.2372 164.0116 0001231 052.9871 307.1439 14.57092778015059
1 29108U 06016B   06222.96285612  .00000122  00000-0  37254-4 0  1020
2 29108 098.2377 165.1667 0001197 057.6752 302.4559 14.57093393 15222
1 29108U 06016B   06222.96285612 +.00000122 +00000-0 +37254-4 0 01053
2 29108 098.2377 165.1667 0001197 057.6752 302.4559 14.57093393015222
1 29108U 06016B   06223.71822994 +.00000085 +00000-0 +28926-4 0 01040
2 29108 098.2382 165.9142 0001157 060.3427 299.7875 14.57093437015330
1 29108U 06016B   06224.40493366  .00000208  00000-0  56222-4 0  1030
2 29108 098.2384 166.5937 0001151 063.4636 296.6705 14.57094257 15431
1 29108U 06016B   06224.81695510 +.00000188 +00000-0 +51923-4 0 01041
2 29108 098.2383 167.0011 0001130 064.9471 295.1843 14.57094363015490
1 29108U 06016B   06225.43498843  .00000145  00000-0  42243-4 0  1048
2 29108 098.2384 167.6126 0001112 064.1700 295.9617 14.57094275 15580
1 29108U 06016B   06226.39637297  .00000085  00000-0  28916-4 0  1057
2 29108 098.2383 168.5634 0001094 065.4118 294.7184 14.57094270 15726
1 29108U 06016B   06226.80839509 +.00000088 +00000-0 +29680-4 0 01066
2 29108 098.2381 168.9710 0001104 064.5764 295.5561 14.57094463015780
1 29108U 06016B   06227.42642766  .00000091  00000-0  30374-4 0  1068
2 29108 098.2380 169.5826 0001089 064.2682 295.8632 14.57094640 15871
1 29108U 06016B   06227.90711972 +.00000071 +00000-0 +25821-4 0 01077
2 29108 098.2377 170.0579 0001096 063.0936 297.0371 14.57094687015949
1 29108U 06016B   06228.73116326  .00000069  00000-0  25491-4 0  1071
2 29108 098.2382 170.8732 0001095 061.5249 298.6048 14.57094800 16062
1 29108U 06016B   06229.89855798  .00000096  00000-0  31521-4 0  1084
2 29108 098.2376 172.0283 0001072 063.2194 296.9112 14.57095315 16237
1 29108U 06016B   06229.89855798 +.00000096 +00000-0 +31521-4 0 01107
2 29108 098.2376 172.0283 0001072 063.2194 296.9112 14.57095315016237
1 29108U 06016B   06231.40930402  .00000108  00000-0  34082-4 0  1090
2 29108  98.2379 173.5233 0001091  59.4979 300.6331 14.57095721 16451
1 29108U 06016B   06232.71403793  .00000149  00000-0  43227-4 0  1101
2 29108  98.2380 174.8143 0001049  64.1724 295.9571 14.57096392 16649
1 29108U 06016B   06233.33206996  .00000219  00000-0  58784-4 0  1119
2 29108  98.2381 175.4261 0001009  63.8228 296.3087 14.57097054 16732
1 29108U 06016B   06234.43079309  .00000230  00000-0  61112-4 0  1120
2 29108  98.2379 176.5133 0001054  64.0636 296.0684 14.57097554 16897
1 29108U 06016B   06235.73552586  .00000167  00000-0  47184-4 0  1130
2 29108  98.2383 177.8043 0001052  62.3681 297.7608 14.57097816 17082
1 29108U 06016B   06236.90291832  .00000145  00000-0  42410-4 0  1148
2 29108  98.2383 178.9594 0001083  63.7087 296.4206 14.57098244 17259
1 29108U 06016B   06237.93297078  .00000074  00000-0  26632-4 0  1150
2 29108  98.2385 179.9789 0001108  58.9778 301.1522 14.57098226 17401
1 29108U 06016B   06238.82568234  .00000083  00000-0  28506-4 0  1167
2 29108  98.2386 180.8622 0001112  62.0171 298.1136 14.57098568 17536
1 29108U 06016B   06239.78706381  .00000059  00000-0  23215-4 0  1176
2 29108  98.2389 181.8137 0001087  61.1703 298.9599 14.57098739 17679
1 29108U 06016B   06240.40509510  .00000129  00000-0  38853-4 0  1185
2 29108  98.2390 182.4252 0001080  64.0962 296.0368 14.57099165 17765
1 29108U 06016B   06241.70982589  .00000185  00000-0  51282-4 0  1194
2 29108  98.2384 183.7154 0001038  64.6367 295.4943 14.57100038 17956
1 29108U 06016B   06242.73987742  .00000077  00000-0  27216-4 0  1206
2 29108  98.2307 184.7309 0001066  67.8252 292.3058 14.57099797 18103
1 29108U 06016B   06243.83859869 -.00000011  00000-0  76577-5 0  1211
2 29108  98.2207 185.8159 0001110  64.6567 295.4746 14.57099927 18261
1 29108U 06016B   06244.86865018 -.00000018  00000-0  59783-5 0  1226
2 29108  98.2130 186.8311 0001128  61.5425 298.5896 14.57100062 18415
1 29108U 06016B   06245.89870045  .00000149  00000-0  43219-4 0  1237
2 29108  98.2081 187.8462 0001025  71.1870 288.9453 14.57101144 18565
1 29108U 06016B   06247.34077061  .00000151  00000-0  43600-4 0  1244
2 29108  98.2070 189.2656 0001021  70.4382 289.6925 14.57101718 18772
1 29108U 06016B   06248.37082027  .00000166  00000-0  46943-4 0  1256
2 29108  98.2068 190.2809 0001013  66.2074 293.9227 14.57102304 18925
1 29108U 06016B   06249.40086987  .00000137  00000-0  40376-4 0  1263
2 29108  98.2071 191.2964 0001038  61.5200 298.6085 14.57102477 19070
1 29108U 06016B   06250.98027904  .00000115  00000-0  35651-4 0  1279
2 29108  98.2071 192.8534 0001030  63.0403 297.0901 14.57103039 19305
1 29108U 06016B   06252.35367746  .00000213  00000-0  57438-4 0  1280
2 29108  98.2079 194.2080 0001059  60.1478 299.9837 14.57104020 19508
1 29108U 06016B   06253.45239573  .00000107  00000-0  33854-4 0  1297
2 29108  98.2084 195.2913 0001035  61.3647 298.7647 14.57103930 19667
1 29108U 06016B   06254.75712364  .00000165  00000-0  46577-4 0  1307
2 29108  98.2086 196.5774 0001052  62.2967 297.8338 14.57104625 19852
1 29108U 06016B   06255.85584130  .00000182  00000-0  50439-4 0  1319
2 29108  98.2087 197.6605 0001036  63.1006 297.0301 14.57105166 20017
1 29108U 06016B   06256.88588855  .00000190  00000-0  52260-4 0  1325
2 29108  98.2086 198.6760 0001034  65.8648 294.2650 14.57105645 20162
